"","housenumber","street","city","county","state","zip","country"
"1","37797","Arkansas 23","Huntsville","United States","Arkansas","72740","United States"
"2","37797","Barkley Lane","Huntingdon","United States","Pennsylvania","16652","United States"
"3","601","Scott Avenue","Wichita Falls","United States","Texas","76301","United States"
"4","700","North Service Road","West Memphis","United States","Arkansas","72301","United States"
"5","700","North Service Road","Memphis","United States","Tennessee","72301","United States"
"6","700","Unnamed Road","North Little Rock","United States","Arkansas","72117","United States"
"7","121","Peanut Ridge Road","McRae","United States","Arkansas","72102","United States"
"8","4831","U.S. 412 Business","Huntsville","United States","Arkansas","72740","United States"
"9","16441","Cr 103","Alpena","United States","Arkansas","72611","United States"
"10","16634","Road 26","Madera","United States","California","93638","United States"
"11","16634","Road 26","Madera","United States","California","93638","United States"
"12","500","East Almond Avenue","Madera","United States","California","93637","United States"
"13","209","West Yosemite Avenue","Madera","United States","California","93637","United States"
"14","14143","Road 28","Madera","United States","California","93638","United States"
"15","500","East Almond Avenue","Madera","United States","California","93637","United States"
"16","500","East Almond Avenue","Madera","United States","California","93637","United States"
"17","200","South L Street","Madera","United States","California","93637","United States"
"18","802","South Alford Street","Crane","United States","Texas","79731","United States"
"19","700","Andrews Highway","Crane","United States","Texas","79731","United States"
"20","500","South Alford Street","Crane","United States","Texas","79731","United States"
"21","7148","West 8th Street","Crane","United States","Texas","79731","United States"
"22","601","McDonough Boulevard Southeast","Atlanta","United States","Georgia","30315","United States"
"23","1520","Ellis Avenue","Jackson","United States","Mississippi","39204","United States"
"24","6770","North 9th Avenue","Pensacola","United States","Florida","32504","United States"
"25","507","H Street","Eureka","United States","California","95501","United States"
"26","105","Oregon 99W","Corvallis","United States","Oregon","97333","United States"
"27","105","East Cervantes Street","Pensacola","United States","Florida","32501","United States"
"28","687","Bushwick Avenue","Pensacola","United States","New York","11221","United States"
"29","687","Bushwick Avenue","Pensacola","United States","New York","11221","United States"
"30","687","Bushwick Avenue","Pensacola","United States","New York","11221","United States"
"31","687","Bushwick Avenue","Pensacola","United States","New York","11221","United States"
"32","5208","North Richmond Street","Appleton","United States","Wisconsin","54913","United States"
"33","2736","South Summerset Drive","Appleton","United States","Wisconsin","54915","United States"
"34","199","South Boulder Avenue West","Tulsa","United States","Oklahoma","74103","United States"
"35","55","Mountain Valley Road","Axton","United States","Virginia","24054","United States"
"36","1508","K Avenue","Plano","United States","Texas","75074","United States"
"37","1508","K Avenue","Plano","United States","Texas","75074","United States"
"38","1805","West 32nd Street","Joplin","United States","Missouri","64804","United States"
"39","3563","East Puetz Road","Oak Creek","United States","Wisconsin","53154","United States"
"40","1805","West 32nd Street","Joplin","United States","Missouri","64804","United States"
"41","501","West 10th Street","Fort Worth","United States","Texas","76102","United States"
"42","25877","Scheider Road","Perrysburg","United States","Ohio","43551","United States"
"43","2607","Johnston Street","Lafayette","United States","Louisiana","70503","United States"
"44","1915","Messmer Road","Verona","United States","Kentucky","41092","United States"
"45","224","Kelly Avenue","Midland City","United States","Alabama","36350","United States"
"46","224","Kelly Avenue","Albany","United States","New York","12207","United States"
"47","2809","Furman L Fendley Highway","Jonesville","United States","South Carolina","29353","United States"
"48","2809","Furman L Fendley Highway","Manchester","United States","New Hampshire","03104","United States"
"49","2809","Furman L Fendley Highway","Memphis","United States","Tennessee","03104","United States"
"50","300","Russell Field Road Northeast","Rome","United States","Georgia","30165","United States"
"51","22","Tumlin Drive","Rome","United States","Georgia","30161","United States"
"52","2804","Alabama Highway","Rome","United States","Georgia","30165","United States"
"53","10/b","Fountain Square","Rome","United States","Georgia","30165","United States"
"54","10/b","Fountain Square","Rome","United States","Georgia","30165","United States"
"55","101","Market Place Boulevard","Cartersville","United States","Georgia","30121","United States"
"56","10/b","Fountain Square","Rome","United States","Georgia","30165","United States"
"57","101","Market Place Boulevard","Cartersville","United States","Georgia","30121","United States"
"58","120","Nevada 170","Bunkerville","United States","Nevada","89007","United States"
"59","7319","West 81st Street","Overland Park","United States","Kansas","66204","United States"
"60","7319","West 81st Street","Overland Park","United States","Kansas","66204","United States"
"61","6598","Seville Road","Goleta","United States","California","93117","United States"
"62","840","Embarcadero del Norte","Goleta","United States","California","93117","United States"
"63","119","East Main Street","Cumming","United States","Georgia","30040","United States"
"64","7101","Cascade Valley Court","Las Vegas","United States","Nevada","89128","United States"
"65","2808","Church Drive","Corinth","United States","Texas","76210","United States"
"66","111","Kleinhans Road","Hawley","United States","Pennsylvania","18428","United States"
"67","1100","Yale Boulevard Southeast","Albuquerque","United States","New Mexico","87106","United States"
"68","3722","Caracus Court","Tallahassee","United States","Florida","32303","United States"
"69","114","Southwest Court Avenue","Pendleton","United States","Oregon","97801","United States"
"70","3414","East Martin Luther King Junior Boulevard","Austin","United States","Texas","78721","United States"
"71","3414","East Martin Luther King Junior Boulevard","Austin","United States","Texas","78721","United States"
"72","3414","East Martin Luther King Junior Boulevard","Austin","United States","Texas","78721","United States"
"73","180","Summerwalk Circle","Chapel Hill","United States","North Carolina","27517","United States"
"74","107","Handley Park Court","Goldsboro","United States","North Carolina","27534","United States"
"75","110","Calhoun Street","Charleston","United States","South Carolina","29401","United States"
"76","3141","Johnston Street","Lafayette","United States","Louisiana","70503","United States"
"77","5290","Belt Line Road","Dallas","United States","Texas","75254","United States"
"78","132","Live Oak Court","Roseburg","United States","Oregon","97470","United States"
"79","3929","North Gloster Street","Tupelo","United States","Mississippi","38804","United States"
"80","432","East Spruce Avenue","Inglewood","United States","California","90301","United States"
"81","410","Main Street","Meriden","United States","Connecticut","06451","United States"
"82","3159","Row Street","Falls Church","United States","Virginia","22044","United States"
"83","917","East 18th Street","Minneapolis","United States","Minnesota","55404","United States"
"84","687","Bushwick Avenue","Minneapolis","United States","New York","11221","United States"
"85","2017","South Washington Street","Grand Forks","United States","North Dakota","58201","United States"
"86","49070","Rio Rancho Court","Coachella","United States","California","92236","United States"
"87","36391","Sodhouse Lane","Princeton","United States","Oregon","97721","United States"
"88","687","Bushwick Avenue","Princeton","United States","New York","11221","United States"
"89","20","North Van Buren Street","Nashville","United States","Indiana","47448","United States"
"90","16808","East Avenue P","Lake Los Angeles","United States","California","93591","United States"
"91","16808","BLM 1018","Lake Los Angeles","United States","Arizona","93591","United States"
"92","417","Stasney Street","College Station","United States","Texas","77840","United States"
"93","335","Northeast Roberts Avenue","Gresham","United States","Oregon","97030","United States"
"94","1602","3rd Street","Fort Wayne","United States","Indiana","46808","United States"
"95","1104","West Midway Road","Fort Pierce","United States","Florida","34982","United States"
"96","1506","Marilla Street","Dallas","United States","Texas","75201","United States"
"97","6770","North 9th Avenue","Pensacola","United States","Florida","32504","United States"
"98","1424","West Lindbergh Street","Appleton","United States","Wisconsin","54914","United States"
"99","300","Russell Field Road Northeast","Rome","United States","Georgia","30165","United States"
"100","300","Russell Field Road Northeast","Rome","United States","Georgia","30165","United States"
"101","300","Russell Field Road Northeast","Rome","United States","Georgia","30165","United States"
"102","2400","Robert F Miller Drive","Lewisburg","United States","Pennsylvania","17837","United States"
"103","12","Congress Street","Boston","United States","Massachusetts","02109","United States"
"104","100","South Dixon Street","Gainesville","United States","Texas","76240","United States"
"105","101","Colonial Drive","Ipswich","United States","Massachusetts","01938","United States"
"106","101","Colonial Drive","Ipswich","United States","Massachusetts","01938","United States"
"107","160","Frontage Road","Newark","United States","New Jersey","07114","United States"
"108","160","Frontage Road","Boston","United States","Massachusetts","02203","United States"
"109","32","Cross Street","Boston","United States","Massachusetts","02113","United States"
"110","32","Cross Street","Boston","United States","Massachusetts","02113","United States"
"111","101","Colonial Drive","Ipswich","United States","Massachusetts","01938","United States"
"112","32","Cross Street","Boston","United States","Massachusetts","02113","United States"
"113","32","Cross Street","Boston","United States","Massachusetts","02113","United States"
"114","32","Cross Street","Boston","United States","Massachusetts","02203","United States"
"115","101","Colonial Drive","Ipswich","United States","Massachusetts","01938","United States"
"116","24","Hammatt Street","Ipswich","United States","Massachusetts","01938","United States"
"117","101","Colonial Drive","Ipswich","United States","Massachusetts","01938","United States"
"118","210","Andover Street","Peabody","United States","Massachusetts","01960","United States"
"119","510","Southampton Street","Boston","United States","Massachusetts","02127","United States"
"120","160","Frontage Road","Newark","United States","New Jersey","07114","United States"
"121","160","Frontage Road","Jackson Township","United States","New Jersey","08527","United States"
"122","24","Hammatt Street","Ipswich","United States","Massachusetts","01938","United States"
"123","24","Hammatt Street","Ipswich","United States","Massachusetts","01938","United States"
"124","160","Frontage Road","Newark","United States","New Jersey","07114","United States"
"125","160","Frontage Road","Newark","United States","New Jersey","07114","United States"
"126","601","Boylston Street","Boston","United States","Massachusetts","02116","United States"
"127","24","Hammatt Street","Ipswich","United States","Massachusetts","01938","United States"
"128","32","Cross Street","Boston","United States","Massachusetts","02113","United States"
"129","71","Summer Street","Boston","United States","Massachusetts","02110","United States"
"130","100","Independence Way","Danvers","United States","Massachusetts","01923","United States"
"131","505","East 5th Street","El Dorado","United States","Arkansas","71730","United States"
"132","302N","North Grand Avenue","Gainesville","United States","Texas","76240","United States"
"133","1399","North Shore Road","Revere","United States","Massachusetts","02151","United States"
"134","160","Frontage Road","Newark","United States","New Jersey","07114","United States"
"135","160","Frontage Road","Newark","United States","New Jersey","07114","United States"
"136","101","Colonial Drive","Ipswich","United States","Massachusetts","01938","United States"
"137","101","Colonial Drive","Ipswich","United States","Massachusetts","01938","United States"
"138","101","Colonial Drive","Ipswich","United States","Massachusetts","01938","United States"
"139","32","Cross Street","Boston","United States","Massachusetts","02113","United States"
"140","200","Nashua Street","Boston","United States","Massachusetts","02114","United States"
"141","219","Appleblossom Lane","Boston","United States","New Jersey","08051","United States"
"142","4073","Franklin Street","Michigan City","United States","Indiana","46360","United States"
"143","4073","Franklin Street","Lexington","United States","Massachusetts","02421","United States"
"144","274","Dorchester Avenue","Boston","United States","Massachusetts","02127","United States"
"145","1265","Church Avenue","Chipley","United States","Florida","32428","United States"
"146","802","East Roberts Road","Phoenix","United States","Arizona","85022","United States"
"147","1851","Ohio 56","London","United States","Ohio","43140","United States"
"148","1150","North Main Street","Mansfield","United States","Ohio","44903","United States"
"149","4399","County Road 22","Marion","United States","Illinois","62959","United States"
"150","42","Northeast 18th Street","Gainesville","United States","Florida","32641","United States"
"151","710","Illinois Avenue","Joplin","United States","Missouri","64801","United States"
"152","710","Illinois Avenue","Joplin","United States","Missouri","64801","United States"
"153","3012","Highwoods Boulevard","Raleigh","United States","North Carolina","27604","United States"
"154","104","Lafayette Street","Shreveport","United States","Louisiana","71107","United States"
"155","364-596","Louisville Avenue","Monroe","United States","Louisiana","71201","United States"
"156","38582","Patterson Road","Wanette","United States","Oklahoma","74878","United States"
"157","6015","West 250 South","Tipton","United States","Indiana","46072","United States"
"158","6015","West 250 South","Tipton","United States","Indiana","46072","United States"
"159","200","Nashua Street","Boston","United States","Massachusetts","02114","United States"
"160","602","North Carolina 731","Mount Gilead","United States","North Carolina","27306","United States"
"161","403","Washington Avenue","Montgomery","United States","Alabama","36104","United States"
"162","11205","East Sprague Avenue","Spokane Valley","United States","Washington","99206","United States"
"163","725","Pike Street","Seattle","United States","Washington","98101","United States"
"164","725","Pike Street","Seattle","United States","Washington","98101","United States"
"165","909","5th Avenue","Seattle","United States","Washington","98164","United States"
"166","725","Pike Street","Seattle","United States","Washington","98101","United States"
"167","3306","South Smugglers Cove Road","Greenbank","United States","Washington","98253","United States"
"168","400","Main Street","Salt Lake City","United States","Utah","84111","United States"
"169","400","Main Street","Salt Lake City","United States","Utah","84111","United States"
"170","451","24th Street North","Birmingham","United States","Alabama","35203","United States"
"171","5","North Main Street","Cedar City","United States","Utah","84720","United States"
"172","1555","West Front Street","Boise","United States","Idaho","83702","United States"
"173","5","North Main Street","Cedar City","United States","Utah","84720","United States"
"174","1553","U.S. 1","Vero Beach","United States","Florida","32960","United States"
"175","5","North Main Street","Cedar City","United States","Utah","84720","United States"
"176","5","North Main Street","West Plains","United States","Missouri","65775","United States"
"177","4813","Southeast Grouper Avenue","Stuart","United States","Florida","34997","United States"
"178","3255","Highway A1A","Fort Pierce","United States","Florida","34949","United States"
"179","1201","20th Street","Vero Beach","United States","Florida","32960","United States"
"180","12005","East Sprague Avenue","Spokane Valley","United States","Washington","99206","United States"
"181","10002","Petaluma Hill Road","Penngrove","United States","California","94951","United States"
"182","102","Railroad Street","Noel","United States","Missouri","64854","United States"
"183","13701","8th Avenue Northwest","Seattle","United States","Washington","98177","United States"
"184","18183","Winton Road","Leavenworth","United States","Washington","98826","United States"
"185","5829","Pioneer Park Place","Langley","United States","Washington","98260","United States"
"186","2201","North 77th East Avenue","Tulsa","United States","Oklahoma","74115","United States"
"187","400","Main Street","Salt Lake City","United States","Utah","84111","United States"
"188","101","North State Street","Ukiah","United States","California","95482","United States"
"189","101","Van Ness Avenue","San Francisco","United States","California","94102","United States"
"190","101","North State Street","Ukiah","United States","California","95482","United States"
"191","2630","Croydon Drive","Sanger","United States","California","93657","United States"
"192","1445","Adams Street","Denver","United States","Colorado","80206","United States"
"193","246","North State Street","Ukiah","United States","California","95482","United States"
"194","4605","East Sprague Avenue","Spokane Valley","United States","Washington","99212","United States"
"195","622","Broadway East","Seattle","United States","Washington","98102","United States"
"196","917","Martin Luther King Junior Way","Tacoma","United States","Washington","98405","United States"
"197","1001","West Cermak Road","Chicago","United States","Illinois","60608","United States"
"198","2720","South Leavitt Street","Chicago","United States","Illinois","60608","United States"
"199","5126","Oakton Street","Skokie","United States","Illinois","60077","United States"
"200","1227","Cedar Lane","Northbrook","United States","Illinois","60062","United States"
"201","335","East Cerro Gordo Street","Decatur","United States","Illinois","62523","United States"
"202","901","East Adams Street","Springfield","United States","Illinois","62701","United States"
"203","1924","East 3rd Street","Bloomington","United States","Indiana","47401","United States"
"204","318","South Reed Street","Joliet","United States","Illinois","60436","United States"
"205","318","South Reed Street","Joliet","United States","Illinois","60436","United States"
"206","1160","West Jefferson Street","Joliet","United States","Illinois","60435","United States"
"207","304","South Reed Street","Joliet","United States","Illinois","60436","United States"
"208","405","Davis Street","Neptune Beach","United States","Florida","32266","United States"
"209","570","4th Street","Santa Rosa","United States","California","95401","United States"
"210","1501","Market Street","Philadelphia","United States","Pennsylvania","19102","United States"
"211","9","South 1st Street","Yakima","United States","Washington","98901","United States"
"212","2760","Cleveland Avenue","Santa Rosa","United States","California","95403","United States"
"213","570","4th Street","Santa Rosa","United States","California","95401","United States"
"214","2632","Cleveland Avenue","Santa Rosa","United States","California","95403","United States"
"215","22","East 100 South","Salt Lake City","United States","Utah","84111","United States"
"216","404","South West Temple","Salt Lake City","United States","Utah","84101","United States"
"217","404","South West Temple","Salt Lake City","United States","Utah","84101","United States"
"218","22","East 100 South","Salt Lake City","United States","Utah","84111","United States"
"219","22","East 100 South","Salt Lake City","United States","Utah","84111","United States"
"220","1195","U.S. 62","Yellville","United States","Arkansas","72687","United States"
"221","203","Ogan Street","Fulton","United States","Arkansas","71838","United States"
"222","219","East 4th Street","Bloomington","United States","Indiana","47408","United States"
"223","837","West Madison Street","Springfield","United States","Missouri","65806","United States"
"224","203","Ogan Street","Fulton","United States","Arkansas","71838","United States"
"225","801","East 7th Street","Texarkana","United States","Arkansas","71854","United States"
"226","207","Park Central East","Springfield","United States","Missouri","65806","United States"
"227","3750","East 3rd Street","Bloomington","United States","Indiana","47401","United States"
"228","203","Ogan Street","Fulton","United States","Arkansas","71838","United States"
"229","12805","Southwest 77th Place","Tigard","United States","Oregon","97223","United States"
"230","909","5th Avenue","Seattle","United States","Washington","98164","United States"
"231","10400","North Morris Road","Hayden","United States","Idaho","83835","United States"
"232","450","West Prairie Avenue","Coeur d'Alene","United States","Idaho","83815","United States"
"233","620","North 7th Street","Coeur d'Alene","United States","Idaho","83814","United States"
"234","1509","Broadway","Seattle","United States","Washington","98122","United States"
"235","1509","Broadway","Seattle","United States","Washington","98402","United States"
"236","16601","Rinaldi Street","Los Angeles","United States","California","91344","United States"
"237","219","West Broadway Street","Missoula","United States","Montana","59802","United States"
"238","10200","Northeast 132nd Street","Kirkland","United States","Washington","98034","United States"
"239","516","3rd Avenue","Seattle","United States","Washington","98104","United States"
"240","6845","South Tacoma Way","Tacoma","United States","Washington","98409","United States"
"241","516","3rd Avenue","Seattle","United States","Washington","98104","United States"
"242","411","East Garden Avenue","Coeur d'Alene","United States","Idaho","83814","United States"
"243","411","East Garden Avenue","Coeur d'Alene","United States","Idaho","83814","United States"
"244","411","East Garden Avenue","Coeur d'Alene","United States","Idaho","83814","United States"
"245","411","East Garden Avenue","Coeur d'Alene","United States","Idaho","83814","United States"
"246","68","Harvard Road","Shirley","United States","Massachusetts","01464","United States"
"247","1410","Court Street Northeast","Salem","United States","Oregon","97301","United States"
"248","6100","Hefley Street","Westminster","United States","California","92683","United States"
"249","15754","Paramount Boulevard","Paramount","United States","California","90723","United States"
"250","5247","Clark Avenue","Lakewood","United States","California","90712","United States"
"251","1005","South Wycliff Avenue","Los Angeles","United States","California","90732","United States"
"252","560","North Western Avenue","Los Angeles","United States","California","90732","United States"
"253","2630","Croydon Drive","Sanger","United States","California","93657","United States"
"254","2630","Croydon Drive","Sanger","United States","California","93657","United States"
"255","2630","Croydon Drive","Sanger","United States","California","93657","United States"
"256","2630","Croydon Drive","Sanger","United States","California","93657","United States"
"257","3662","Central Avenue","Newport Beach","United States","California","92663","United States"
"258","3662","Central Avenue","Los Angeles","United States","California","90012","United States"
"259","3662","Central Avenue","Los Angeles","United States","California","90012","United States"
"260","3662","Central Avenue","Los Angeles","United States","California","90012","United States"
"261","694","West 9th Street","Los Angeles","United States","California","90731","United States"
"262","694","West 9th Street","Los Angeles","United States","California","90012","United States"
"263","694","West 9th Street","Los Angeles","United States","California","90012","United States"
"264","694","West 9th Street","Los Angeles","United States","California","90012","United States"
"265","694","West 9th Street","Los Angeles","United States","California","90012","United States"
"266","694","West 9th Street","Los Angeles","United States","California","90012","United States"
"267","694","West 9th Street","Los Angeles","United States","California","90012","United States"
"268","694","West 9th Street","Los Angeles","United States","California","90012","United States"
"269","694","West 9th Street","Los Angeles","United States","California","90012","United States"
"270","560","North Western Avenue","Los Angeles","United States","California","90732","United States"
"271","511","South Harbor Boulevard","Los Angeles","United States","California","90731","United States"
"272","1005","South Wycliff Avenue","Los Angeles","United States","California","90732","United States"
"273","511","South Harbor Boulevard","Los Angeles","United States","California","90731","United States"
"274","694","West 9th Street","Los Angeles","United States","California","90731","United States"
"275","249299","Pacific Avenue","Long Beach","United States","California","90802","United States"
"276","291","California 173","Lake Arrowhead","United States","California","92352","United States"
"277","7751","Hazard Avenue","Westminster","United States","California","92683","United States"
